0 COSMOS 614
1 06965U 73098A   13282.10300957  .00000143  00000-0  55233-4 0  9400
2 06965 074.0559 295.0309 0024500 303.5891 087.2370 14.38510924 88017
0 COSMOS 614
1 06965U 73098A   13283.14839309  .00000143  00000-0  55437-4 0  9410
2 06965 074.0558 293.1061 0024504 301.4597 100.8455 14.38511212 88167
0 COSMOS 614
1 06965U 73098A   13286.14358289  .00000114  00000-0  45830-4 0  9432
2 06965 074.0557 287.5913 0024552 295.5369 131.5194 14.38512521 88594
0 COSMOS 614
1 06965U 73098A   13287.18813367  .00000128  00000-0  50378-4 0  9449
2 06965 074.0558 285.6679 0024569 293.5130 140.7171 14.38512683 88748
0 COSMOS 614
1 06965U 73098A   13288.45689091  .00000182  00000-0  67907-4 0  9452
2 06965 074.0560 283.3317 0024572 290.9958 231.0261 14.38513386 88923
0 COSMOS 614
1 06965U 73098A   13289.49352637  .00000128  00000-0  50353-4 0  9468
2 06965 074.0562 281.4229 0024570 288.9128 199.3120 14.38514097 89077
0 COSMOS 614
1 06965U 73098A   13290.53875382  .00000174  00000-0  65447-4 0  9474
2 06965 074.0564 279.4983 0024585 286.8000 212.1079 14.38514317 89224
0 COSMOS 614
1 06965U 73098A   13291.58251493  .00000190  00000-0  70445-4 0  9484
2 06965 074.0565 277.5765 0024592 284.7147 217.2873 14.38514406 89372
0 COSMOS 614
1 06965U 73098A   13293.17013525  .00000195  00000-0  72179-4 0  9495
2 06965 074.0566 274.6534 0024583 281.5226 158.8945 14.38514903 89606
0 COSMOS 614
1 06965U 73098A   13294.50229179  .00000211  00000-0  77398-4 0  9506
2 06965 074.0567 272.2008 0024590 278.8927 217.5178 14.38515665 89799
0 COSMOS 614
1 06965U 73098A   13295.86927122  .00000240  00000-0  86811-4 0  9512
2 06965 074.0567 269.6842 0024579 276.1688 096.5010 14.38516337 89996
